"spkid","full_name","pdes","name","prefix","neo","pha","H","G","M1","M2","K1","K2","PC","diameter","extent","albedo","rot_per","GM","epoch","epoch_mjd","epoch_cal","equinox","e","a","q","i","om","w","ma","ad","n","tp","tp_cal","per","per_y","moid","moid_ld","moid_jup","class","producer","data_arc","first_obs","last_obs","condition_code","rms","two_body","A1","A2","A3","DT"
2513125,"513125 (1997 GC32)",513125,,,Y,N,18.34,,,,,,,,,,,,2460000.5,60000,2023-02-25.0,J2000,0.6532,2.032,0.705,5.92,177.20,150.18,308.73,3.36,0.3403,2460151.15,2023-07-25.6,1.06e+03,2.9,0.0712,27.7,2.04,APO,"Otto Matic",8680,1997-04-14,2021-01-18,0,.51186,,,,,
2513126,"513126 (1998 QP)",513126,,,Y,Y,21.71,,,,,,,,,,,,2460000.5,60000,2023-02-25.0,J2000,0.5826,1.786,0.745,9.35,326.46,78.40,78.13,2.83,0.413,2459811.33,2022-08-19.8,872,2.39,0.0134,5.22,2.69,APO,"Otto Matic",7128,1998-08-17,2018-02-21,0,.47442,,,,,
2513138,"513138 (2002 CY58)",513138,,,Y,N,21.08,,,,,,,,,,,,2460000.5,60000,2023-02-25.0,J2000,0.3845,1.367,0.841,8.29,341.57,40.00,138.30,1.89,0.617,2459776.34,2022-07-15.8,583,1.6,0.0607,23.6,3.59,APO,"Otto Matic",5876,2002-02-03,2018-03-07,0,.73185,,,,,
2513163,"513163 (2003 YT124)",513163,,,Y,N,20.78,,,,,,,,,,,,2460000.5,60000,2023-02-25.0,J2000,0.4771,2.321,1.214,5.48,326.45,118.52,157.35,3.43,0.2787,2459435.93,2021-08-09.4,1.29e+03,3.54,0.246,95.9,1.87,AMO,"Otto Matic",5041,2003-12-28,2017-10-16,0,.57331,,,,,
2513165,"513165 (2004 CK39)",513165,,,Y,N,19.02,,,,,,,,,,5.631,,2460000.5,60000,2023-02-25.0,J2000,0.8317,2.291,0.386,12.24,355.89,268.74,146.29,4.20,0.2843,2459485.94,2021-09-28.4,1.27e+03,3.47,0.0691,26.9,1.37,APO,"Otto Matic",6497,2004-02-14,2021-11-28,0,.54709,,,,,
2513170,"513170 (2004 KH15)",513170,,,Y,N,20.18,,,,,,,,,,,,2460000.5,60000,2023-02-25.0,J2000,0.1702,0.9611,0.798,35.07,78.09,350.06,151.84,1.12,1.046,2459855.35,2022-10-02.8,344,0.942,0.106,41.1,4.14,ATE,"Otto Matic",6197,2004-05-24,2021-05-12,0,.74817,,,,,
2513171,"513171 (2004 MD6)",513171,,,Y,Y,20.48,,,,,,,,,,,,2460000.5,60000,2023-02-25.0,J2000,0.5630,0.9508,0.416,29.32,263.84,231.46,129.43,1.49,1.063,2459878.74,2022-10-26.2,339,0.927,0.00924,3.59,3.75,ATE,"Otto Matic",5954,2004-06-23,2020-10-11,0,.57093,,,,,
2513181,"513181 (2005 BS27)",513181,,,Y,N,20.39,,,,,,,,,,6.602,,2460000.5,60000,2023-02-25.0,J2000,0.3854,1.117,0.686,16.70,324.13,48.80,186.17,1.55,0.8352,2460208.64,2023-09-21.1,431,1.18,0.148,57.7,3.97,APO,"Otto Matic",4771,2005-01-31,2018-02-23,0,.59341,,,,,
2513182,"513182 (2005 CV38)",513182,,,Y,N,20.34,,,,,,,,,,,,2460000.5,60000,2023-02-25.0,J2000,0.4372,1.89,1.064,11.87,146.43,62.83,307.44,2.72,0.3793,2460139.07,2023-07-13.5,949,2.6,0.163,63.5,2.31,AMO,"Otto Matic",4899,2005-02-09,2018-07-10,0,.5744,,,,,
2513312,"513312 (2007 DM41)",513312,,,Y,Y,22.07,,,,,,,,,,,,2460000.5,60000,2023-02-25.0,J2000,0.5276,1.181,0.558,2.26,1.73,274.46,111.24,1.80,0.7676,2459855.58,2022-10-03.0,469,1.28,0.00757,2.94,3.33,APO,"Otto Matic",3918,2007-02-23,2017-11-15,0,.48274,,,,,
2513358,"513358 (2008 CA5)",513358,,,Y,N,19.80,,,,,,,,,,,,2460000.5,60000,2023-02-25.0,J2000,0.5948,1.868,0.757,25.02,331.45,273.00,295.39,2.98,0.3861,2460167.83,2023-08-11.3,932,2.55,0.0916,35.6,2.68,APO,"Otto Matic",3895,2008-02-06,2018-10-06,0,.50117,,,,,
2513472,"513472 (2009 CS5)",513472,,,Y,N,19.38,,,,,,,,,,,,2460000.5,60000,2023-02-25.0,J2000,0.6568,1.474,0.506,30.10,320.49,316.67,232.59,2.44,0.5505,2460231.95,2023-10-14.4,654,1.79,0.251,97.6,2.99,APO,"Otto Matic",3281,2009-02-14,2018-02-08,0,.74091,,,,,
2513489,"513489 (2009 EV)",513489,,,Y,Y,20.12,,,,,,,,,,,,2460000.5,60000,2023-02-25.0,J2000,0.5235,1.729,0.824,17.00,138.57,250.24,125.28,2.63,0.4337,2459711.62,2022-05-12.1,830,2.27,0.0303,11.8,2.98,APO,"Otto Matic",3511,2008-08-03,2018-03-15,0,.52374,,,,,
2513497,"513497 (2009 HB82)",513497,,,Y,N,17.70,,,,,,,,,,,,2460000.5,60000,2023-02-25.0,J2000,0.5988,2.759,1.107,10.97,316.69,301.53,5.10,4.41,0.2151,2459976.79,2023-02-01.2,1.67e+03,4.58,0.172,66.8,1.05,AMO,"Otto Matic",3393,2009-04-23,2018-08-07,0,.55313,,,,,
2513529,"513529 (2010 CR1)",513529,,,Y,N,18.46,,,,,,,,,,,,2460000.5,60000,2023-02-25.0,J2000,0.7335,1.372,0.365,25.76,313.00,70.70,85.32,2.38,0.6136,2459861.46,2022-10-08.9,587,1.61,0.0667,26,3.46,APO,"Otto Matic",6992,2002-02-11,2021-04-04,0,.48868,,,,,
2513550,"513550 (2010 NG3)",513550,,,Y,N,17.20,,,,,,,1.451,,0.111,4.229,,2460000.5,60000,2023-02-25.0,J2000,0.5670,2.605,1.128,26.95,64.09,194.41,19.84,4.08,0.2344,2459915.85,2022-12-02.3,1.54e+03,4.2,0.125,48.7,1.06,AMO,"Otto Matic",15273,1976-08-27,2018-06-21,0,.39542,,,,,
2513572,"513572 (2010 VX39)",513572,,,Y,N,19.26,,,,,,,,,,,,2460000.5,60000,2023-02-25.0,J2000,0.4216,1.793,1.037,11.31,77.12,15.35,34.65,2.55,0.4104,2459916.06,2022-12-02.5,877,2.4,0.0599,23.3,2.69,AMO,"Otto Matic",4465,2010-11-05,2023-01-26,0,.58229,,,,,
2513711,"513711 (2012 PC20)",513711,,,Y,N,21.30,,,,,,,,,,,,2460000.5,60000,2023-02-25.0,J2000,0.1840,1.328,1.083,14.41,330.16,290.18,4.65,1.57,0.6442,2459993.28,2023-02-17.7,559,1.53,0.16,62.2,3.54,AMO,"Otto Matic",4107,2009-11-18,2021-02-15,0,.48662,,,,,
2513776,"513776 (2013 AA2)",513776,,,Y,N,18.69,,,,,,,,,,,,2460000.5,60000,2023-02-25.0,J2000,0.5467,2.862,1.297,6.86,155.63,259.62,50.96,4.43,0.2036,2459750.19,2022-06-19.6,1.77e+03,4.84,0.335,130,1.09,AMO,"Otto Matic",3860,2007-08-23,2018-03-18,1,.57199,,,,,
2513916,"513916 (2014 AR46)",513916,,,Y,N,19.28,,,,,,,,,,,,2460000.5,60000,2023-02-25.0,J2000,0.2102,1.641,1.296,22.04,288.70,284.02,55.20,1.99,0.469,2459882.79,2022-10-30.2,768,2.1,0.414,161,3.22,AMO,"Otto Matic",1525,2013-12-11,2018-02-13,1,.41549,,,,,
2514041,"514041 (2014 MQ18)",514041,,,Y,N,15.62,,,,,,,5.272,,0.037,,,2460000.5,60000,2023-02-25.0,J2000,0.5989,2.9,1.163,35.08,347.28,332.99,245.06,4.64,0.1996,2460576.44,2024-09-22.9,1.8e+03,4.94,0.195,75.8,1.11,AMO,"Otto Matic",6170,2004-03-28,2021-02-17,0,.55558,,,,,
2514150,"514150 (2015 KJ57)",514150,,,Y,Y,21.53,,,,,,,,,,,,2460000.5,60000,2023-02-25.0,J2000,0.4041,1.559,0.929,2.63,14.40,336.46,295.86,2.19,0.5064,2460127.16,2023-07-01.6,711,1.95,0.0126,4.89,3.25,APO,"Otto Matic",994,2015-05-18,2018-02-05,0,.47163,,,,,
2514568,"514568 (1994 RC)",514568,,,Y,Y,19.22,,,,,,,,,,,,2460000.5,60000,2023-02-25.0,J2000,0.6033,2.264,0.898,4.76,344.27,286.55,139.78,3.63,0.2894,2459517.47,2021-10-29.9,1.24e+03,3.41,0.0379,14.8,1.55,APO,"Otto Matic",8979,1994-04-07,2018-11-06,0,.60781,,,,,
2514571,"514571 (1996 RY3)",514571,,,Y,N,20.42,,,,,,,,,,,,2460000.5,60000,2023-02-25.0,J2000,0.1384,1.195,1.030,36.57,174.23,288.37,351.56,1.36,0.7543,2460011.69,2023-03-08.1,477,1.31,0.126,49.2,3.73,AMO,"Otto Matic",7919,1996-09-15,2018-05-22,0,.51925,,,,,
2514596,"514596 (2003 FG)",514596,,,Y,Y,19.73,,,,,,,,,,8.6763,,2460000.5,60000,2023-02-25.0,J2000,0.7150,1.241,0.354,15.66,6.99,312.92,98.81,2.13,0.7127,2459861.85,2022-10-09.3,505,1.38,0.0434,16.9,3.28,APO,"Otto Matic",8017,2001-01-26,2023-01-08,0,.45555,,,,,
2514597,"514597 (2003 MD7)",514597,,,Y,N,20.25,,,,,,,,,,,,2460000.5,60000,2023-02-25.0,J2000,0.5946,1.467,0.595,5.79,200.46,185.31,339.69,2.34,0.5546,2460037.12,2023-04-02.6,649,1.78,0.0982,38.2,3.12,APO,"Otto Matic",5858,2003-06-29,2019-07-13,0,.61479,,,,,
2514652,"514652 (2005 SC71)",514652,,,Y,N,18.32,,,,,,,0.741,,0.154,,,2460000.5,60000,2023-02-25.0,J2000,0.3824,1.91,1.180,32.39,196.52,117.88,248.98,2.64,0.3733,2460297.92,2023-12-19.4,964,2.64,0.331,129,3.2,AMO,"Otto Matic",5901,2005-09-30,2021-11-26,0,.55945,,,,,
2514846,"514846 (2008 EQ7)",514846,,,Y,N,22.62,,,,,,,,,,,,2460000.5,60000,2023-02-25.0,J2000,0.2233,1.411,1.096,5.97,142.42,65.44,312.59,1.73,0.588,2460081.12,2023-05-16.6,612,1.68,0.133,51.7,3.24,AMO,"Otto Matic",3661,2008-03-06,2018-03-15,0,.41301,,,,,
2514914,"514914 (2008 TN26)",514914,,,Y,N,20.10,,,,,,,,,,,,2460000.5,60000,2023-02-25.0,J2000,0.6329,1.825,0.670,9.41,253.58,22.40,332.52,2.98,0.3999,2460069.21,2023-05-04.7,900,2.46,0.137,53.4,2.18,APO,"Otto Matic",3690,2008-10-09,2018-11-16,1,.56541,,,,,
2515010,"515010 (2009 SK2)",515010,,,Y,N,18.96,,,,,,,,,,,,2460000.5,60000,2023-02-25.0,J2000,0.4715,1.719,0.909,38.23,23.92,257.14,33.45,2.53,0.4372,2459923.98,2022-12-10.4,823,2.25,0.168,65.4,3.18,APO,"Otto Matic",3823,2009-09-18,2020-03-07,0,.47397,,,,,
2515049,"515049 (2010 FL)",515049,,,Y,N,19.31,,,,,,,0.351,,0.273,,,2460000.5,60000,2023-02-25.0,J2000,0.6548,1.919,0.662,11.40,66.62,214.09,281.77,3.18,0.3708,2460211.48,2023-09-23.9,971,2.66,0.14,54.6,2.04,APO,"Otto Matic",5854,2002-10-30,2018-11-09,0,.55395,,,,,
2515082,"515082 (2010 TM3)",515082,,,Y,N,20.69,,,,,,,,,,0.043081,,2460000.5,60000,2023-02-25.0,J2000,0.2174,1.427,1.117,8.60,30.01,25.49,73.48,1.74,0.5783,2459873.43,2022-10-20.9,623,1.7,0.133,51.9,3.61,AMO,"Otto Matic",15086,1981-10-25,2023-02-13,0,.41366,,,,,
2515335,"515335 (2013 AW60)",515335,,,Y,N,18.76,,,,,,,,,,,,2460000.5,60000,2023-02-25.0,J2000,0.4193,1.799,1.045,28.17,127.85,278.53,108.54,2.55,0.4084,2459734.73,2022-06-04.2,881,2.41,0.308,120,3.24,AMO,"Otto Matic",2398,2013-01-09,2019-08-04,1,.32204,,,,,
2515446,"515446 (2013 UG5)",515446,,,Y,N,20.39,,,,,,,,,,,,2460000.5,60000,2023-02-25.0,J2000,0.2883,1.558,1.109,23.33,37.67,79.93,231.42,2.01,0.507,2460254.08,2023-11-05.5,710,1.94,0.299,116,3.31,AMO,"Otto Matic",2405,2013-10-25,2020-05-26,0,.46941,,,,,
2515639,"515639 (2014 MK27)",515639,,,Y,N,21.72,,,,,,,,,,,,2460000.5,60000,2023-02-25.0,J2000,0.3392,1.039,0.687,8.48,69.54,349.45,320.97,1.39,0.9303,2460042.45,2023-04-07.9,387,1.06,0.133,51.8,3.94,APO,"Otto Matic",1416,2014-06-27,2018-05-13,1,.53071,,,,,
2515742,"515742 (2015 CU)",515742,,,Y,N,20.83,,,,,,,,,,,,2460000.5,60000,2023-02-25.0,J2000,0.2038,0.9713,0.773,35.38,154.07,197.84,281.21,1.17,1.03,2460077.03,2023-05-12.5,350,0.957,0.164,63.9,4.21,ATE,"Otto Matic",1126,2015-02-08,2018-03-10,1,.44522,,,,,
2515767,"515767 (2015 JA2)",515767,,,Y,Y,21.17,,,,,,,,,,0.9801,,2460000.5,60000,2023-02-25.0,J2000,0.3492,1.034,0.673,16.42,126.61,246.25,31.22,1.39,0.9376,2459967.20,2023-01-22.6,384,1.05,0.0425,16.6,4.12,APO,"Otto Matic",1738,2015-05-13,2020-02-14,1,.61826,,,,,
